STARLINK-36847          
1 67910U 26036G   26079.50001156 -.00086176  00000+0 -14782-2 0  9995
2 67910  43.0001 185.2909 0001240 303.5676  34.7269 15.50601101  5381
STARLINK-36736          
1 67911U 26036H   26079.50001156 -.01911517  00000+0 -39405-1 0  9991
2 67911  42.9995 184.7334 0001129 286.3327 278.3522 15.48265097  5380
STARLINK-36676          
1 67912U 26036J   26079.50001156 -.00002076  00000+0 -29587-4 0  9995
2 67912  43.0003 184.8566 0001499 262.5668 251.4801 15.50563827  5382
STARLINK-36690          
1 67913U 26036K   26079.50001156 -.00035137  00000+0 -59547-3 0  9998
2 67913  43.0003 184.8442 0001366 278.9998 240.4460 15.50593894  5382
STARLINK-36724          
1 67914U 26036L   26079.50001156  .00035162  00000+0  60353-3 0  9992
2 67914  43.0003 184.7960 0001292 287.0992 251.3456 15.50530209  5387
STARLINK-36723          
1 67915U 26036M   26079.50001156 -.00794102  00000+0 -14593-1 0  9994
2 67915  42.9999 184.7181 0001485 281.3986 289.0948 15.50852891  5387
STARLINK-36721          
1 67916U 26036N   26079.50001156 -.01937446  00000+0 -36859-1 0  9995
2 67916  42.9998 184.6938 0001201 271.0804 308.9579 15.50560881  5383
STARLINK-36722          
1 67917U 26036P   26079.50001156 -.01376478  00000+0 -25764-1 0  9991
2 67917  42.9999 184.4738 0001581 266.5890  42.3346 15.50957010  5381
STARLINK-36341          
1 67918U 26036Q   26079.33529686  .00058710  00000+0  99683-3 0  9992
2 67918  42.9981 186.5893 0000403 285.5649  74.5167 15.50642394  5332
STARLINK-36663          
1 67919U 26036R   26079.50001156 -.01921846  00000+0 -37383-1 0  9998
2 67919  42.9995 184.6536 0001017 283.3199 312.8261 15.49917447  5389
STARLINK-36375          
1 67920U 26036S   26079.50001156 -.01899950  00000+0 -40904-1 0  9993
2 67920  43.0007 185.0366 0001689 276.6935 164.4776 15.47005616  5387
STARLINK-36405          
1 67921U 26036T   26079.33274510  .00048085  00000+0  81907-3 0  9993
2 67921  42.9946 186.5661 0000977 194.9013 165.1819 15.50625805  5333
