CCSDS_OMM_VERS = 2.0
CREATION_DATE  = 
ORIGINATOR     = 

OBJECT_NAME    = STARLINK-36847
OBJECT_ID      = 2026-036G
CENTER_NAME    = EARTH
REF_FRAME      = TEME
TIME_SYSTEM    = UTC
MEAN_ELEMENT_THEORY = SGP/SGP4

EPOCH          = 2026-03-20T12:00:00.998784
MEAN_MOTION    = 15.50601101
ECCENTRICITY   = .000124
INCLINATION    = 43.0001
RA_OF_ASC_NODE = 185.2909
ARG_OF_PERICENTER = 303.5676
MEAN_ANOMALY   = 34.7269

EPHEMERIS_TYPE = 0
CLASSIFICATION_TYPE = U
NORAD_CAT_ID   = 67910
ELEMENT_SET_NO = 999
REV_AT_EPOCH   = 538
BSTAR          = -.14782E-2
MEAN_MOTION_DOT = -.86176E-3
MEAN_MOTION_DDOT = 0

CCSDS_OMM_VERS = 2.0
CREATION_DATE  = 
ORIGINATOR     = 

OBJECT_NAME    = STARLINK-36736
OBJECT_ID      = 2026-036H
CENTER_NAME    = EARTH
REF_FRAME      = TEME
TIME_SYSTEM    = UTC
MEAN_ELEMENT_THEORY = SGP/SGP4

EPOCH          = 2026-03-20T12:00:00.998784
MEAN_MOTION    = 15.48265097
ECCENTRICITY   = .0001129
INCLINATION    = 42.9995
RA_OF_ASC_NODE = 184.7334
ARG_OF_PERICENTER = 286.3327
MEAN_ANOMALY   = 278.3522

EPHEMERIS_TYPE = 0
CLASSIFICATION_TYPE = U
NORAD_CAT_ID   = 67911
ELEMENT_SET_NO = 999
REV_AT_EPOCH   = 538
BSTAR          = -.39405E-1
MEAN_MOTION_DOT = -.1911517E-1
MEAN_MOTION_DDOT = 0

CCSDS_OMM_VERS = 2.0
CREATION_DATE  = 
ORIGINATOR     = 

OBJECT_NAME    = STARLINK-36676
OBJECT_ID      = 2026-036J
CENTER_NAME    = EARTH
REF_FRAME      = TEME
TIME_SYSTEM    = UTC
MEAN_ELEMENT_THEORY = SGP/SGP4

EPOCH          = 2026-03-20T12:00:00.998784
MEAN_MOTION    = 15.50563827
ECCENTRICITY   = .0001499
INCLINATION    = 43.0003
RA_OF_ASC_NODE = 184.8566
ARG_OF_PERICENTER = 262.5668
MEAN_ANOMALY   = 251.4801

EPHEMERIS_TYPE = 0
CLASSIFICATION_TYPE = U
NORAD_CAT_ID   = 67912
ELEMENT_SET_NO = 999
REV_AT_EPOCH   = 538
BSTAR          = -.29587E-4
MEAN_MOTION_DOT = -.2076E-4
MEAN_MOTION_DDOT = 0

CCSDS_OMM_VERS = 2.0
CREATION_DATE  = 
ORIGINATOR     = 

OBJECT_NAME    = STARLINK-36690
OBJECT_ID      = 2026-036K
CENTER_NAME    = EARTH
REF_FRAME      = TEME
TIME_SYSTEM    = UTC
MEAN_ELEMENT_THEORY = SGP/SGP4

EPOCH          = 2026-03-20T12:00:00.998784
MEAN_MOTION    = 15.50593894
ECCENTRICITY   = .0001366
INCLINATION    = 43.0003
RA_OF_ASC_NODE = 184.8442
ARG_OF_PERICENTER = 278.9998
MEAN_ANOMALY   = 240.4460

EPHEMERIS_TYPE = 0
CLASSIFICATION_TYPE = U
NORAD_CAT_ID   = 67913
ELEMENT_SET_NO = 999
REV_AT_EPOCH   = 538
BSTAR          = -.59547E-3
MEAN_MOTION_DOT = -.35137E-3
MEAN_MOTION_DDOT = 0

CCSDS_OMM_VERS = 2.0
CREATION_DATE  = 
ORIGINATOR     = 

OBJECT_NAME    = STARLINK-36724
OBJECT_ID      = 2026-036L
CENTER_NAME    = EARTH
REF_FRAME      = TEME
TIME_SYSTEM    = UTC
MEAN_ELEMENT_THEORY = SGP/SGP4

EPOCH          = 2026-03-20T12:00:00.998784
MEAN_MOTION    = 15.50530209
ECCENTRICITY   = .0001292
INCLINATION    = 43.0003
RA_OF_ASC_NODE = 184.7960
ARG_OF_PERICENTER = 287.0992
MEAN_ANOMALY   = 251.3456

EPHEMERIS_TYPE = 0
CLASSIFICATION_TYPE = U
NORAD_CAT_ID   = 67914
ELEMENT_SET_NO = 999
REV_AT_EPOCH   = 538
BSTAR          = .60353E-3
MEAN_MOTION_DOT = .35162E-3
MEAN_MOTION_DDOT = 0

CCSDS_OMM_VERS = 2.0
CREATION_DATE  = 
ORIGINATOR     = 

OBJECT_NAME    = STARLINK-36723
OBJECT_ID      = 2026-036M
CENTER_NAME    = EARTH
REF_FRAME      = TEME
TIME_SYSTEM    = UTC
MEAN_ELEMENT_THEORY = SGP/SGP4

EPOCH          = 2026-03-20T12:00:00.998784
MEAN_MOTION    = 15.50852891
ECCENTRICITY   = .0001485
INCLINATION    = 42.9999
RA_OF_ASC_NODE = 184.7181
ARG_OF_PERICENTER = 281.3986
MEAN_ANOMALY   = 289.0948

EPHEMERIS_TYPE = 0
CLASSIFICATION_TYPE = U
NORAD_CAT_ID   = 67915
ELEMENT_SET_NO = 999
REV_AT_EPOCH   = 538
BSTAR          = -.14593E-1
MEAN_MOTION_DOT = -.794102E-2
MEAN_MOTION_DDOT = 0

CCSDS_OMM_VERS = 2.0
CREATION_DATE  = 
ORIGINATOR     = 

OBJECT_NAME    = STARLINK-36721
OBJECT_ID      = 2026-036N
CENTER_NAME    = EARTH
REF_FRAME      = TEME
TIME_SYSTEM    = UTC
MEAN_ELEMENT_THEORY = SGP/SGP4

EPOCH          = 2026-03-20T12:00:00.998784
MEAN_MOTION    = 15.50560881
ECCENTRICITY   = .0001201
INCLINATION    = 42.9998
RA_OF_ASC_NODE = 184.6938
ARG_OF_PERICENTER = 271.0804
MEAN_ANOMALY   = 308.9579

EPHEMERIS_TYPE = 0
CLASSIFICATION_TYPE = U
NORAD_CAT_ID   = 67916
ELEMENT_SET_NO = 999
REV_AT_EPOCH   = 538
BSTAR          = -.36859E-1
MEAN_MOTION_DOT = -.1937446E-1
MEAN_MOTION_DDOT = 0

CCSDS_OMM_VERS = 2.0
CREATION_DATE  = 
ORIGINATOR     = 

OBJECT_NAME    = STARLINK-36722
OBJECT_ID      = 2026-036P
CENTER_NAME    = EARTH
REF_FRAME      = TEME
TIME_SYSTEM    = UTC
MEAN_ELEMENT_THEORY = SGP/SGP4

EPOCH          = 2026-03-20T12:00:00.998784
MEAN_MOTION    = 15.50957010
ECCENTRICITY   = .0001581
INCLINATION    = 42.9999
RA_OF_ASC_NODE = 184.4738
ARG_OF_PERICENTER = 266.5890
MEAN_ANOMALY   = 42.3346

EPHEMERIS_TYPE = 0
CLASSIFICATION_TYPE = U
NORAD_CAT_ID   = 67917
ELEMENT_SET_NO = 999
REV_AT_EPOCH   = 538
BSTAR          = -.25764E-1
MEAN_MOTION_DOT = -.1376478E-1
MEAN_MOTION_DDOT = 0

CCSDS_OMM_VERS = 2.0
CREATION_DATE  = 
ORIGINATOR     = 

OBJECT_NAME    = STARLINK-36341
OBJECT_ID      = 2026-036Q
CENTER_NAME    = EARTH
REF_FRAME      = TEME
TIME_SYSTEM    = UTC
MEAN_ELEMENT_THEORY = SGP/SGP4

EPOCH          = 2026-03-20T08:02:49.648704
MEAN_MOTION    = 15.50642394
ECCENTRICITY   = .0000403
INCLINATION    = 42.9981
RA_OF_ASC_NODE = 186.5893
ARG_OF_PERICENTER = 285.5649
MEAN_ANOMALY   = 74.5167

EPHEMERIS_TYPE = 0
CLASSIFICATION_TYPE = U
NORAD_CAT_ID   = 67918
ELEMENT_SET_NO = 999
REV_AT_EPOCH   = 533
BSTAR          = .99683E-3
MEAN_MOTION_DOT = .5871E-3
MEAN_MOTION_DDOT = 0

CCSDS_OMM_VERS = 2.0
CREATION_DATE  = 
ORIGINATOR     = 

OBJECT_NAME    = STARLINK-36663
OBJECT_ID      = 2026-036R
CENTER_NAME    = EARTH
REF_FRAME      = TEME
TIME_SYSTEM    = UTC
MEAN_ELEMENT_THEORY = SGP/SGP4

EPOCH          = 2026-03-20T12:00:00.998784
MEAN_MOTION    = 15.49917447
ECCENTRICITY   = .0001017
INCLINATION    = 42.9995
RA_OF_ASC_NODE = 184.6536
ARG_OF_PERICENTER = 283.3199
MEAN_ANOMALY   = 312.8261

EPHEMERIS_TYPE = 0
CLASSIFICATION_TYPE = U
NORAD_CAT_ID   = 67919
ELEMENT_SET_NO = 999
REV_AT_EPOCH   = 538
BSTAR          = -.37383E-1
MEAN_MOTION_DOT = -.1921846E-1
MEAN_MOTION_DDOT = 0

CCSDS_OMM_VERS = 2.0
CREATION_DATE  = 
ORIGINATOR     = 

OBJECT_NAME    = STARLINK-36375
OBJECT_ID      = 2026-036S
CENTER_NAME    = EARTH
REF_FRAME      = TEME
TIME_SYSTEM    = UTC
MEAN_ELEMENT_THEORY = SGP/SGP4

EPOCH          = 2026-03-20T12:00:00.998784
MEAN_MOTION    = 15.47005616
ECCENTRICITY   = .0001689
INCLINATION    = 43.0007
RA_OF_ASC_NODE = 185.0366
ARG_OF_PERICENTER = 276.6935
MEAN_ANOMALY   = 164.4776

EPHEMERIS_TYPE = 0
CLASSIFICATION_TYPE = U
NORAD_CAT_ID   = 67920
ELEMENT_SET_NO = 999
REV_AT_EPOCH   = 538
BSTAR          = -.40904E-1
MEAN_MOTION_DOT = -.189995E-1
MEAN_MOTION_DDOT = 0

CCSDS_OMM_VERS = 2.0
CREATION_DATE  = 
ORIGINATOR     = 

OBJECT_NAME    = STARLINK-36405
OBJECT_ID      = 2026-036T
CENTER_NAME    = EARTH
REF_FRAME      = TEME
TIME_SYSTEM    = UTC
MEAN_ELEMENT_THEORY = SGP/SGP4

EPOCH          = 2026-03-20T07:59:09.176640
MEAN_MOTION    = 15.50625805
ECCENTRICITY   = .0000977
INCLINATION    = 42.9946
RA_OF_ASC_NODE = 186.5661
ARG_OF_PERICENTER = 194.9013
MEAN_ANOMALY   = 165.1819

EPHEMERIS_TYPE = 0
CLASSIFICATION_TYPE = U
NORAD_CAT_ID   = 67921
ELEMENT_SET_NO = 999
REV_AT_EPOCH   = 533
BSTAR          = .81907E-3
MEAN_MOTION_DOT = .48085E-3
MEAN_MOTION_DDOT = 0

